OBJECT_NAME,OBJECT_ID,EPOCH,MEAN_MOTION,ECCENTRICITY,INCLINATION,RA_OF_ASC_NODE,ARG_OF_PERICENTER,MEAN_ANOMALY,EPHEMERIS_TYPE,CLASSIFICATION_TYPE,NORAD_CAT_ID,ELEMENT_SET_NO,REV_AT_EPOCH,BSTAR,MEAN_MOTION_DOT,MEAN_MOTION_DDOT
BEIDOU-2 G7,2016-037A,2026-07-01T01:19:38.525664,1.00270345,.0006794,1.7532,69.4272,3.1720,336.9759,0,U,41586,999,702,0,-.344E-5,0
ABS-2A (MONGOLSAT-1),2016-038A,2026-07-01T04:07:08.169312,1.00268217,.0001749,0.0272,22.8096,24.1536,8.7968,0,U,41588,999,3684,0,0,0
EUTELSAT 117 WEST B,2016-038B,2026-06-30T23:47:11.816736,1.00269383,.0000237,0.0226,113.5347,125.0097,280.3059,0,U,41589,999,3680,0,-.1E-7,0
BRISAT,2016-039A,2026-06-30T23:20:47.687424,1.00268841,.0002223,0.0211,1.9390,91.6343,326.1522,0,U,41591,999,3674,0,0,0
ECHOSTAR 18,2016-039B,2026-07-01T01:45:41.493024,1.00269428,.0001761,0.0256,33.7704,70.6788,139.7453,0,U,41592,999,3676,0,0,0
CARTOSAT-2C,2016-040A,2026-07-01T03:43:54.527808,15.19299280,.0010482,97.4480,241.9409,89.4961,270.7474,0,U,41599,999,55583,.18809E-3,.3907E-4,0
SKYSAT-C1,2016-040C,2026-07-01T00:34:15.311712,15.36534257,.0002002,96.9551,212.9947,28.2182,331.9171,0,U,41601,999,55999,.31587E-3,.11192E-3,0
LAPAN-A3,2016-040E,2026-07-01T05:22:08.520672,15.33195064,.0009112,97.1489,177.9090,335.3229,24.7577,0,U,41603,999,55696,.11901E-3,.3745E-4,0
MUOS-5,2016-041A,2026-07-01T04:21:38.562048,1.00272702,.0198388,2.1745,301.9096,260.5744,36.9945,0,U,41622,999,3722,0,-.116E-5,0
SJ 16-02,2016-043A,2026-07-01T05:02:34.792224,14.93616948,.0007891,75.0029,252.4287,351.6159,8.4896,0,U,41634,999,54323,.13948E-3,.1444E-4,0
TIANTONG-1 1,2016-048A,2026-07-01T02:32:05.368416,1.00269149,.0005897,3.8745,43.5233,52.9515,322.1093,0,U,41725,999,3641,0,-.309E-5,0
GAOFEN-3,2016-049A,2026-07-01T04:01:29.996256,14.42217210,.0001668,98.4006,189.7424,95.1171,265.0209,0,U,41727,999,52066,.29064E-4,.52E-6,0
JCSAT-16,2016-050A,2026-06-30T19:53:35.619936,1.00287418,.0002058,0.0179,18.2390,108.1310,234.8793,0,U,41729,999,3620,0,-.237E-5,0
USA 270,2016-052A,2026-06-25T15:01:47.554176,0.99500516,.0000668,4.2178,77.0981,157.1810,56.2495,0,U,41744,999,2821,0,-.284E-5,0
USA 271,2016-052B,2026-06-25T18:13:09.824736,0.99833204,.0001955,4.1909,77.1447,290.7679,281.9940,0,U,41745,999,2800,0,-.236E-5,0
INTELSAT 36 (IS-36),2016-053A,2026-07-01T04:05:23.335008,1.00270586,.00021,0.0104,16.3738,332.8834,59.8194,0,U,41747,999,3609,0,-.14E-6,0
INSAT-3DR,2016-054A,2026-07-01T02:24:13.620960,1.00272393,.0010057,0.1393,85.9865,186.5089,116.6999,0,U,41752,999,3595,0,-.67E-6,0
PERUSAT 1,2016-058A,2026-07-01T03:54:40.358304,14.58566344,.0001263,98.2025,255.6301,88.4826,271.6518,0,U,41770,999,52113,.34171E-4,.113E-5,0
SKYSAT-C4,2016-058B,2026-07-01T00:42:10.715616,15.49022400,.000251,96.9165,203.2248,137.9147,222.2298,0,U,41771,999,54761,.38714E-3,.20906E-3,0
SKYSAT-C5,2016-058C,2026-07-01T01:24:05.302080,15.34666451,.000177,97.0459,222.0804,196.4961,163.6226,0,U,41772,999,54587,.29014E-3,.9675E-4,0
SKYSAT-C2,2016-058D,2026-07-01T00:21:22.408416,15.42382724,.000334,97.0157,203.5909,38.8322,321.3166,0,U,41773,999,54718,.33264E-3,.1429E-3,0
SKYSAT-C3,2016-058E,2026-07-01T01:30:26.764128,15.53133828,.0001375,96.9000,212.3802,130.0913,230.0462,0,U,41774,999,54826,.49848E-3,.31215E-3,0
PISAT,2016-059B,2026-06-30T23:18:48.464064,14.69007441,.0029555,97.8181,181.8319,158.6922,201.5522,0,U,41784,999,52176,.18071E-3,.1019E-4,0
ALSAT-1B,2016-059C,2026-07-01T04:08:35.405664,14.72283624,.0009225,97.7743,190.3325,172.0786,188.0569,0,U,41785,999,52263,.16573E-5,-.37E-6,0
ALSAT-2B,2016-059D,2026-07-01T03:45:17.528832,14.70890055,.0001721,97.9895,244.1596,113.4435,246.6953,0,U,41786,999,52282,.12189E-3,.697E-5,0
PATHFINDER 1,2016-059E,2026-06-30T23:25:58.839744,14.67678797,.0028926,97.8168,180.6304,159.5279,200.7093,0,U,41787,999,52173,.12102E-3,.646E-5,0
SCATSAT 1,2016-059H,2026-07-01T01:51:25.763328,14.79557620,.0054163,98.1186,245.9867,201.9871,157.9016,0,U,41790,999,10364,.19679E-3,.1452E-4,0
GSAT-18,2016-060A,2026-07-01T02:24:13.620960,1.00272125,.0005909,0.0473,93.2619,344.2940,311.6366,0,U,41793,999,3566,0,-.66E-6,0
SKY MUSTER 2 (NBN1B),2016-060B,2026-07-01T04:27:06.601248,1.00269946,.000178,0.0171,336.1416,122.7493,31.9254,0,U,41794,999,3566,0,-.234E-5,0
HIMAWARI-9,2016-064A,2026-07-01T04:18:38.400768,1.00268966,.0001355,0.0345,265.6813,213.6321,5.3269,0,U,41836,999,3535,0,-.265E-5,0
SHIJIAN-17 (SJ-17),2016-065A,2026-06-30T18:31:20.984160,0.99860394,.0002242,5.7854,72.4442,32.9051,306.8431,0,U,41838,999,3533,0,.13E-5,0
